{
    "links": {
        "self": "http://www.neowsapp.com/rest/v1/neo/3842769?api_key=iIulBulltgU6a56xZRHN4H3l9WmuAYTsLGpBGhQ2"
    },
    "id": "3842769",
    "neo_reference_id": "3842769",
    "name": "(2019 LS1)",
    "designation": "2019 LS1",
    "nasa_jpl_url": "http://ssd.jpl.nasa.gov/sbdb.cgi?sstr=3842769",
    "absolute_magnitude_h": 22.3,
    "estimated_diameter": {
        "kilometers": {
            "estimated_diameter_min": 0.0921626549,
            "estimated_diameter_max": 0.2060819612
        },
        "meters": {
            "estimated_diameter_min": 92.1626548503,
            "estimated_diameter_max": 206.0819612321
        },
        "miles": {
            "estimated_diameter_min": 0.057267201,
            "estimated_diameter_max": 0.1280533543
        },
        "feet": {
            "estimated_diameter_min": 302.370924539,
            "estimated_diameter_max": 676.1219416887
        }
    },
    "is_potentially_hazardous_asteroid": false,
    "close_approach_data": [
        {
            "close_approach_date": "2019-05-06",
            "close_approach_date_full": "2019-May-06 05:52",
            "epoch_date_close_approach": 1557121920000,
            "relative_velocity": {
                "kilometers_per_second": "17.686541254",
                "kilometers_per_hour": "63671.54851449",
                "miles_per_hour": "39563.0241311285"
            },
            "miss_distance": {
                "astronomical": "0.0934228641",
                "lunar": "36.3414941349",
                "kilometers": "13975861.478659467",
                "miles": "8684197.6312439646"
            },
            "orbiting_body": "Earth"
        }
    ],
    "orbital_data": {
        "orbit_id": "2",
        "orbit_determination_date": "2019-06-11 23:30:24",
        "first_observation_date": "2019-05-25",
        "last_observation_date": "2019-06-05",
        "data_arc_in_days": 11,
        "observations_used": 19,
        "orbit_uncertainty": "9",
        "minimum_orbit_intersection": ".0474045",
        "jupiter_tisserand_invariant": "3.524",
        "epoch_osculation": "2458636.5",
        "eccentricity": ".623404089493348",
        "semi_major_axis": "2.043779304979275",
        "inclination": "3.597061261728165",
        "ascending_node_longitude": "350.729723348747",
        "orbital_period": "1067.208861491306",
        "perihelion_distance": ".7696789282333225",
        "perihelion_argument": "161.6462361152701",
        "aphelion_distance": "3.317879681725228",
        "perihelion_time": "2458564.934509310134",
        "mean_anomaly": "24.14108201121008",
        "mean_motion": ".337328533326588",
        "equinox": "J2000",
        "orbit_class": {
            "orbit_class_type": "APO",
            "orbit_class_description": "Near-Earth asteroid orbits which cross the Earth’s orbit similar to that of 1862 Apollo",
            "orbit_class_range": "a (semi-major axis) > 1.0 AU; q (perihelion) < 1.017 AU"
        }
    },
    "is_sentry_object": false
}